{
"type": "FeatureCollection",
"name": "relevant_rivers",
"crs": { "type": "name", "properties": { "name": "urn:ogc:def:crs:OGC:1.3:CRS84" } },
"features": [
{ "type": "Feature", "properties": { "id": "way/24624604", "@id": "way/24624604", "admin_level": null, "alt_name": null, "alt_name:en": null, "alt_name:zh": null, "alt_name:zh-Hans": null, "alt_name:zh-Hant": null, "alt_name:zh-Latn-pinyin": null, "boat": "no", "boundary": null, "intermittent": "no", "loc_name": null, "loc_name:en": null, "loc_name:zh": null, "loc_name:zh-Hans": null, "loc_name:zh-Hant": null, "name": "Trishuli River", "name:bo": null, "name:bo-Latn-thl": null, "name:bo-Latn-wylie": null, "name:de": null, "name:en": "Trishuli River", "name:fr": null, "name:ko": "트리슐리강", "name:ne": null, "name:zh": null, "name:zh-Hans": null, "name:zh-Hant": null, "name:zh-Latn-pinyin": null, "nsdi_code": null, "reg_name": null, "reg_name:zh": null, "reg_name:zh-Hans": null, "reg_name:zh-Hant": null, "short_name": null, "short_name:en": null, "short_name:zh": null, "short_name:zh-Hans": null, "short_name:zh-Hant": null, "source": null, "tidal": null, "waterway": "river", "wikidata": null, "zhb_code": null }, "geometry": { "type": "LineString", "coordinates": [ [ 85.3413057, 28.1644225 ], [ 85.3409875, 28.1643893 ], [ 85.340532, 28.1643132 ], [ 85.3402864, 28.1642576 ], [ 85.34005190000002, 28.1641894 ], [ 85.339845700000012, 28.1641076 ], [ 85.3396849, 28.1640114 ], [ 85.3395867, 28.1639001 ], [ 85.3393909, 28.1634449 ], [ 85.3393403, 28.163375 ], [ 85.3392711, 28.1633073 ], [ 85.3391771, 28.1632397 ], [ 85.339052, 28.16317 ], [ 85.338553, 28.162948799999988 ], [ 85.3381598, 28.1627521 ], [ 85.3378941, 28.1625885 ], [ 85.3377417, 28.1624543 ], [ 85.3376559, 28.162331 ], [ 85.3375777, 28.1621786 ], [ 85.3375177, 28.1620127 ], [ 85.3374859, 28.1618485 ], [ 85.337497, 28.1616699 ], [ 85.3376032, 28.1611136 ], [ 85.3376654, 28.1606448 ], [ 85.337625, 28.1604757 ], [ 85.3375494, 28.1602767 ], [ 85.337540700000019, 28.1601462 ], [ 85.3374678, 28.1600291 ], [ 85.337362, 28.1598988 ], [ 85.3371801, 28.1598502 ], [ 85.33697890000002, 28.1598283 ], [ 85.3365713, 28.1596998 ], [ 85.335946, 28.1594676 ], [ 85.3355644, 28.1592296 ], [ 85.3352234, 28.1589672 ], [ 85.3347748, 28.1588089 ], [ 85.3343802, 28.1587523 ], [ 85.3340535, 28.158677 ], [ 85.3339434, 28.1586316 ], [ 85.333848, 28.1585642 ], [ 85.3336178, 28.1583377 ], [ 85.332979, 28.1575967 ], [ 85.332773900000021, 28.1573924 ], [ 85.3326739, 28.1573217 ], [ 85.3324092, 28.1571811 ], [ 85.331426, 28.1567493 ], [ 85.3312826, 28.1566735 ], [ 85.3311212, 28.1565668 ], [ 85.3309161, 28.156409 ], [ 85.330426, 28.1559941 ], [ 85.3291962, 28.1548428 ], [ 85.3282423, 28.1538869 ], [ 85.328064, 28.1537128 ], [ 85.3279363, 28.1536303 ], [ 85.3275485, 28.1534571 ], [ 85.3273835, 28.1533544 ], [ 85.3273022, 28.1532871 ], [ 85.3272221, 28.1531995 ], [ 85.3270634, 28.1529595 ], [ 85.3266736, 28.1522561 ], [ 85.326519, 28.1520573 ], [ 85.3264191, 28.1519809 ], [ 85.3261108, 28.1518156 ], [ 85.3253143, 28.1514667 ], [ 85.3249712, 28.1513013 ], [ 85.324845300000021, 28.1512249 ], [ 85.324439, 28.1509382 ], [ 85.3242126, 28.150821 ], [ 85.3240829, 28.1507747 ], [ 85.323937900000018, 28.1507387 ], [ 85.3237747, 28.1507148 ], [ 85.3234034, 28.1506985 ], [ 85.3230839, 28.1506652 ], [ 85.3228256, 28.1505994 ], [ 85.3226163, 28.1504961 ], [ 85.3224435, 28.1503504 ], [ 85.3222088, 28.1500621 ], [ 85.3220265, 28.1498619 ], [ 85.3218138, 28.1496708 ], [ 85.3216942, 28.1495823 ], [ 85.321424300000018, 28.1494261 ], [ 85.3212726, 28.1493613 ], [ 85.3209984, 28.1492687 ], [ 85.3206945, 28.1489647 ], [ 85.3204673, 28.1489124 ], [ 85.3203607, 28.1488221 ], [ 85.3202429, 28.148726 ], [ 85.3201385, 28.1486113 ], [ 85.3201245, 28.1485858 ], [ 85.3200135, 28.1483867 ], [ 85.3199657, 28.1483006 ], [ 85.3199073, 28.1482269 ], [ 85.3198349, 28.1481694 ], [ 85.3197427, 28.1481207 ], [ 85.3195008, 28.1480239 ], [ 85.3190625, 28.1478942 ], [ 85.3186415, 28.1478064 ], [ 85.3183128, 28.1477671 ], [ 85.3181053, 28.1477268 ], [ 85.3179142, 28.1476493 ], [ 85.3178282, 28.1475901 ], [ 85.3177505, 28.1475137 ], [ 85.3176822, 28.1474176 ], [ 85.3175648, 28.1471704 ], [ 85.3174902, 28.1470461 ], [ 85.3173103, 28.146815 ], [ 85.3171119, 28.1466138 ], [ 85.3169217, 28.1464508 ], [ 85.3167665, 28.1463341 ], [ 85.3165973, 28.146233 ], [ 85.3163658, 28.1461201 ], [ 85.3160998, 28.1460086 ], [ 85.315697, 28.1458726 ], [ 85.3145872, 28.1456305 ], [ 85.3139249, 28.1454574 ], [ 85.3137532, 28.1453985 ], [ 85.3136229, 28.1453408 ], [ 85.3133995, 28.1452158 ], [ 85.3131771, 28.1450626 ], [ 85.3130771, 28.1449731 ], [ 85.3129903, 28.1448736 ], [ 85.312921, 28.1447632 ], [ 85.3128735, 28.1446409 ], [ 85.3128521, 28.1445058 ], [ 85.3128612, 28.144357 ], [ 85.3129926, 28.1434204 ], [ 85.3130287, 28.1429048 ], [ 85.3130252, 28.1427774 ], [ 85.3129957, 28.1425949 ], [ 85.3129326, 28.141955 ], [ 85.3128555, 28.1416831 ], [ 85.3127933, 28.1415606 ], [ 85.312711, 28.1414526 ], [ 85.3126147, 28.1413619 ], [ 85.3125138, 28.141288 ], [ 85.3124101, 28.14123 ], [ 85.3122014, 28.1411581 ], [ 85.3120029, 28.1411397 ], [ 85.31182920000002, 28.1411678 ], [ 85.3116654, 28.1412484 ], [ 85.3106353, 28.1419047 ], [ 85.3103448, 28.1420738 ], [ 85.3102541, 28.1421148 ], [ 85.3100296, 28.142174 ], [ 85.3098638, 28.1421917 ], [ 85.309779, 28.1421898 ], [ 85.3096104, 28.1421572 ], [ 85.3094494, 28.142077 ], [ 85.3076233, 28.1407319 ] ] } },
{ "type": "Feature", "properties": { "id": "way/84690392", "@id": "way/84690392", "admin_level": null, "alt_name": "吉隆藏布", "alt_name:en": "Kerung Khola", "alt_name:zh": "吉隆藏布", "alt_name:zh-Hans": "吉隆藏布", "alt_name:zh-Hant": "吉隆藏布", "alt_name:zh-Latn-pinyin": "jílóng zàngbù", "boat": null, "boundary": null, "intermittent": null, "loc_name": "Gyirong Zangbo", "loc_name:en": "Gyirong Zangbo", "loc_name:zh": null, "loc_name:zh-Hans": null, "loc_name:zh-Hant": null, "name": "吉隆藏布", "name:bo": "སྐྱིད་གྲོང་གཙང་པོ", "name:bo-Latn-thl": "kyi drong tsang po", "name:bo-Latn-wylie": "skyid grong gtsang po", "name:de": null, "name:en": "Kyirong Tsangpo", "name:fr": null, "name:ko": null, "name:ne": null, "name:zh": "吉隆藏布", "name:zh-Hans": "吉隆藏布", "name:zh-Hant": "吉隆藏布", "name:zh-Latn-pinyin": "tèěrsūlǐ hé", "nsdi_code": "JD3404", "reg_name": null, "reg_name:zh": null, "reg_name:zh-Hans": null, "reg_name:zh-Hant": null, "short_name": "Trisuli", "short_name:en": "Trisuli", "short_name:zh": null, "short_name:zh-Hans": null, "short_name:zh-Hant": null, "source": null, "tidal": null, "waterway": "river", "wikidata": null, "zhb_code": "17JD030800" }, "geometry": { "type": "LineString", "coordinates": [ [ 85.2902719, 28.4087538 ], [ 85.2914082, 28.4084174 ], [ 85.2919566, 28.4079846 ], [ 85.292594, 28.4076754 ], [ 85.2933344, 28.4064552 ], [ 85.294370200000017, 28.4055071 ], [ 85.2954716, 28.4049959 ], [ 85.2962214, 28.405033 ], [ 85.2969525, 28.4054287 ], [ 85.2975712, 28.4060883 ], [ 85.2979508, 28.4069787 ], [ 85.298967800000014, 28.4073786 ], [ 85.2999707, 28.4072838 ], [ 85.300416, 28.4075476 ], [ 85.3007019, 28.4082237 ], [ 85.3012736, 28.4084875 ], [ 85.3023328, 28.4085411 ], [ 85.3026515, 28.4083144 ], [ 85.3029749, 28.4078527 ], [ 85.3038091, 28.4072632 ], [ 85.3043387, 28.4066778 ], [ 85.304662100000016, 28.4058946 ], [ 85.305187, 28.4052762 ], [ 85.3059556, 28.4046702 ], [ 85.3061759, 28.4042126 ], [ 85.3062227, 28.4036149 ], [ 85.3065742, 28.4033098 ], [ 85.3069117, 28.4031573 ], [ 85.3076287, 28.4032397 ], [ 85.3079427, 28.4031078 ], [ 85.3081524, 28.4028766 ], [ 85.308941, 28.4020071 ], [ 85.3096018, 28.4016855 ], [ 85.3101548, 28.401669 ], [ 85.3108859, 28.4018381 ], [ 85.3115374, 28.4016897 ], [ 85.3121513, 28.4019576 ], [ 85.3132902, 28.4020483 ], [ 85.3136651, 28.4019205 ], [ 85.3136651, 28.4013269 ], [ 85.3140822, 28.4009723 ], [ 85.3141104, 28.400457 ], [ 85.3137542, 28.3997933 ], [ 85.3130746, 28.3992903 ], [ 85.3122638, 28.3987461 ], [ 85.3116452, 28.3982638 ], [ 85.3113265, 28.3968785 ], [ 85.3113687, 28.3966023 ], [ 85.3118373, 28.396289 ], [ 85.31262, 28.3960581 ], [ 85.3130887, 28.3950027 ], [ 85.3133652, 28.3946852 ], [ 85.3139276, 28.3945079 ], [ 85.3140073, 28.394174 ], [ 85.3141994, 28.3934236 ], [ 85.314565, 28.3929907 ], [ 85.3154086, 28.3926568 ], [ 85.3162006, 28.3926073 ], [ 85.3167677, 28.3922033 ], [ 85.3169083, 28.3916673 ], [ 85.3168286, 28.3909953 ], [ 85.316988, 28.3907644 ], [ 85.3178925, 28.3901336 ], [ 85.3188532, 28.3895605 ], [ 85.3191375, 28.3895996 ], [ 85.320053, 28.3897254 ], [ 85.320517, 28.3895605 ], [ 85.3209857, 28.3892925 ], [ 85.321229400000021, 28.3888884 ], [ 85.3215012, 28.388707 ], [ 85.3225838, 28.3890946 ], [ 85.3232868, 28.3891894 ], [ 85.3239523, 28.3889832 ], [ 85.3243997, 28.388645 ], [ 85.3245919, 28.3878345 ], [ 85.3244652, 28.3870901 ], [ 85.324083, 28.386711 ], [ 85.3239206, 28.3859909 ], [ 85.3243282, 28.3856061 ], [ 85.3243912, 28.3853174 ], [ 85.3242123, 28.3850084 ], [ 85.3234169, 28.3845798 ], [ 85.323175, 28.3839938 ], [ 85.3225798, 28.3831256 ], [ 85.3225765, 28.38249 ], [ 85.322772, 28.3815454 ], [ 85.322888, 28.3810352 ], [ 85.3230902, 28.3808077 ], [ 85.3233288, 28.3799039 ], [ 85.3233785, 28.3794286 ], [ 85.3235773, 28.3792012 ], [ 85.3239319, 28.3791312 ], [ 85.3247007, 28.3787376 ], [ 85.325231, 28.3783761 ], [ 85.3264434, 28.3773072 ], [ 85.3273339, 28.3769856 ], [ 85.3285708, 28.3770138 ], [ 85.3299862, 28.3775127 ], [ 85.331026600000015, 28.3783663 ], [ 85.3322381, 28.3788293 ], [ 85.3330699, 28.378841 ], [ 85.3336962, 28.3786485 ], [ 85.3346473, 28.3778992 ], [ 85.3350246, 28.3776877 ], [ 85.3353761, 28.3777042 ], [ 85.3355729, 28.3773372 ], [ 85.3365102, 28.3769455 ], [ 85.3367399, 28.376496 ], [ 85.337232, 28.3763022 ], [ 85.3377897, 28.3757084 ], [ 85.338131800000014, 28.3754487 ], [ 85.3384458, 28.3748549 ], [ 85.3382349, 28.3742075 ], [ 85.3383193, 28.3734446 ], [ 85.3380146, 28.3730817 ], [ 85.3371476, 28.3722322 ], [ 85.335611, 28.3717588 ], [ 85.3350774, 28.3714147 ], [ 85.3348189, 28.3710298 ], [ 85.3348024, 28.3706391 ], [ 85.3350476, 28.3700647 ], [ 85.3356209, 28.3697876 ], [ 85.3363533, 28.369289 ], [ 85.3369449, 28.3690959 ], [ 85.3380996, 28.3690862 ], [ 85.3395942, 28.3693894 ], [ 85.3408767, 28.3694565 ], [ 85.3413406, 28.369302 ], [ 85.3419968, 28.3689404 ], [ 85.342159200000012, 28.3686896 ], [ 85.3421459, 28.3683135 ], [ 85.3422785, 28.3680889 ], [ 85.3426033, 28.3679081 ], [ 85.343339, 28.3675874 ], [ 85.3434848, 28.3674299 ], [ 85.3439487, 28.3673366 ], [ 85.3449893, 28.3673949 ], [ 85.3462305, 28.3669984 ], [ 85.3471544, 28.3670779 ], [ 85.3479067, 28.3673024 ], [ 85.3482281, 28.3673024 ], [ 85.34848, 28.3670983 ], [ 85.3486026, 28.3668825 ], [ 85.3490168, 28.3666813 ], [ 85.3494907, 28.3667775 ], [ 85.3500375, 28.367072 ], [ 85.3503192, 28.3670458 ], [ 85.3507501, 28.3669204 ], [ 85.351161, 28.3670429 ], [ 85.3519696, 28.3675561 ], [ 85.3525263, 28.3676552 ], [ 85.3532819, 28.368218 ], [ 85.3539513, 28.3684513 ], [ 85.3545346, 28.3683988 ], [ 85.3554095, 28.3681568 ], [ 85.3563871, 28.3681305 ], [ 85.3570731, 28.3682151 ], [ 85.3574575, 28.3680547 ] ] } },
{ "type": "Feature", "properties": { "id": "way/201928141", "@id": "way/201928141", "admin_level": null, "alt_name": null, "alt_name:en": "Bhotekoshi Nadi;Bhotekoshi", "alt_name:zh": null, "alt_name:zh-Hans": null, "alt_name:zh-Hant": null, "alt_name:zh-Latn-pinyin": null, "boat": null, "boundary": null, "intermittent": "no", "loc_name": null, "loc_name:en": null, "loc_name:zh": null, "loc_name:zh-Hans": null, "loc_name:zh-Hant": null, "name": "भोटे कोशी", "name:bo": null, "name:bo-Latn-thl": null, "name:bo-Latn-wylie": null, "name:de": "Bhotekoshi", "name:en": "Bhote Koshi", "name:fr": null, "name:ko": "보테코시 강", "name:ne": "भोटे कोशी", "name:zh": "波达柯西河", "name:zh-Hans": null, "name:zh-Hant": null, "name:zh-Latn-pinyin": null, "nsdi_code": null, "reg_name": null, "reg_name:zh": null, "reg_name:zh-Hans": null, "reg_name:zh-Hant": null, "short_name": null, "short_name:en": null, "short_name:zh": null, "short_name:zh-Hans": null, "short_name:zh-Hant": null, "source": null, "tidal": "no", "waterway": "river", "wikidata": null, "zhb_code": null }, "geometry": { "type": "LineString", "coordinates": [ [ 85.376979, 28.2780546 ], [ 85.376821600000014, 28.2779066 ], [ 85.3767462, 28.2777463 ], [ 85.3767613, 28.2775121 ], [ 85.3765985, 28.2770261 ], [ 85.3771714, 28.2758879 ], [ 85.3773933, 28.2751452 ], [ 85.3776105, 28.2744659 ], [ 85.3776476, 28.2741356 ], [ 85.377728600000012, 28.2734137 ], [ 85.377618100000021, 28.2726571 ], [ 85.3775209, 28.2719917 ], [ 85.3776048, 28.2713134 ], [ 85.3775962, 28.2706383 ], [ 85.3775949, 28.270283 ], [ 85.3773685, 28.2698453 ], [ 85.3767389, 28.2692069 ], [ 85.3763324, 28.2688538 ], [ 85.376239, 28.2682701 ], [ 85.3761588, 28.268068 ], [ 85.3760461, 28.2677839 ], [ 85.3758622, 28.2674971 ], [ 85.3758404, 28.2671284 ], [ 85.3757841, 28.2668506 ], [ 85.3755782, 28.266605 ], [ 85.3752892, 28.2663322 ], [ 85.3750465, 28.2662087 ], [ 85.3747305, 28.2660842 ], [ 85.374483, 28.2660575 ], [ 85.3740981, 28.2658021 ], [ 85.3738543, 28.2655288 ], [ 85.3736376, 28.2652264 ], [ 85.3732695, 28.2649583 ], [ 85.3728356, 28.2648002 ], [ 85.3726159, 28.2645444 ], [ 85.3725014, 28.2642226 ], [ 85.3725293, 28.2637686 ], [ 85.3727395, 28.2633658 ], [ 85.3728672, 28.2630691 ], [ 85.372849, 28.2627265 ], [ 85.3726205, 28.2623202 ], [ 85.3721556, 28.2619653 ], [ 85.371794, 28.2617948 ], [ 85.3711533, 28.2614335 ], [ 85.3709295, 28.2612648 ], [ 85.3706772, 28.2609758 ], [ 85.3701434, 28.2603391 ], [ 85.369643, 28.2598333 ], [ 85.369335, 28.2595682 ], [ 85.3689459, 28.2591658 ], [ 85.3687436, 28.2589566 ], [ 85.3680626, 28.2586969 ], [ 85.367482900000013, 28.2585703 ], [ 85.3665112, 28.2584886 ], [ 85.3658447, 28.2581913 ], [ 85.3655834, 28.2579395 ], [ 85.3654734, 28.2576234 ], [ 85.365507800000017, 28.2570507 ], [ 85.365507800000017, 28.2564967 ], [ 85.36513770000002, 28.254852 ], [ 85.3650429, 28.2542095 ], [ 85.3650446, 28.2534983 ], [ 85.3650598, 28.2530637 ], [ 85.3650195, 28.2522315 ], [ 85.3648935, 28.2520075 ], [ 85.3647465, 28.2517719 ], [ 85.3646775, 28.2514446 ], [ 85.3646449, 28.2511203 ], [ 85.3648108, 28.2505815 ], [ 85.36497, 28.2500646 ], [ 85.3650164, 28.2497402 ], [ 85.3649821, 28.249554 ], [ 85.364861600000012, 28.2494292 ], [ 85.364336, 28.2489507 ], [ 85.3640952, 28.2486872 ], [ 85.3638697, 28.2481966 ], [ 85.3633558, 28.2467827 ], [ 85.3631936, 28.2465653 ], [ 85.3629994, 28.2463895 ], [ 85.3624306, 28.2458514 ], [ 85.3611588, 28.2450484 ], [ 85.3604894, 28.2447003 ], [ 85.359684500000014, 28.2442672 ], [ 85.3592583, 28.2438852 ], [ 85.3588736, 28.2434913 ], [ 85.3586512, 28.2432473 ], [ 85.358457, 28.2428725 ], [ 85.3582262, 28.2423521 ], [ 85.358145400000012, 28.2416326 ], [ 85.3581813, 28.2411955 ], [ 85.3582245, 28.2406879 ], [ 85.3582515, 28.2403252 ], [ 85.358256700000013, 28.2397252 ], [ 85.3582034, 28.2392849 ], [ 85.3582631, 28.2386698 ], [ 85.3581634, 28.2382734 ], [ 85.3580332, 28.2380123 ], [ 85.3579697, 28.2378227 ], [ 85.3579239, 28.2376081 ], [ 85.3579374, 28.2373559 ], [ 85.358087, 28.2370764 ], [ 85.3584222, 28.23691 ], [ 85.3585944, 28.2368124 ], [ 85.3587017, 28.2366909 ], [ 85.3587843, 28.2364763 ], [ 85.358794, 28.2362643 ], [ 85.3588086, 28.2359585 ], [ 85.3588799, 28.2357066 ], [ 85.3590113, 28.2351725 ], [ 85.3591105, 28.2349433 ], [ 85.3592688, 28.2347566 ], [ 85.3594673, 28.2345889 ], [ 85.3596367, 28.2343824 ], [ 85.3598347, 28.233913 ], [ 85.360057, 28.2334183 ], [ 85.3603115, 28.2329665 ], [ 85.3603513, 28.2327601 ], [ 85.3603578, 28.2321643 ], [ 85.3603979, 28.2316935 ], [ 85.3604357, 28.2311473 ], [ 85.3605317, 28.23082 ], [ 85.360677, 28.2305289 ], [ 85.3607477, 28.2302819 ], [ 85.3608379, 28.2300611 ], [ 85.3608727, 28.2295459 ], [ 85.3609988, 28.2289197 ], [ 85.361031, 28.2285227 ], [ 85.3610095, 28.2280429 ], [ 85.360978, 28.2276578 ], [ 85.3609934, 28.227386 ], [ 85.3610739, 28.2266628 ], [ 85.36108, 28.2264494 ], [ 85.3610873, 28.2258924 ], [ 85.361097, 28.2255196 ], [ 85.3611168, 28.2251645 ], [ 85.3611661, 28.2247643 ], [ 85.3611157, 28.2243836 ], [ 85.3610444, 28.2241672 ], [ 85.3609334, 28.2237594 ], [ 85.3609103, 28.2234369 ], [ 85.3608544, 28.2231308 ], [ 85.3608245, 28.2229265 ], [ 85.3607766, 28.2227661 ], [ 85.3606904, 28.222631 ], [ 85.360536, 28.222457 ], [ 85.3603604, 28.2221915 ], [ 85.3599903, 28.2218275 ], [ 85.3599375, 28.2217743 ], [ 85.3597462, 28.2215817 ], [ 85.3595547, 28.2213854 ], [ 85.3593171, 28.2213028 ], [ 85.3591132, 28.2212627 ], [ 85.3588825, 28.2211563 ], [ 85.3587438, 28.2210795 ], [ 85.3586572, 28.2209271 ], [ 85.3585698, 28.2207489 ], [ 85.3584718, 28.2205331 ], [ 85.3582308, 28.2202393 ], [ 85.3580672, 28.2200337 ], [ 85.3577882, 28.2197855 ], [ 85.3576004, 28.2196012 ], [ 85.3573912, 28.2193649 ], [ 85.3571874, 28.2190907 ], [ 85.3568763, 28.2188165 ], [ 85.3565893, 28.2185944 ], [ 85.3564122, 28.218462 ], [ 85.356254, 28.2182659 ], [ 85.3559624, 28.2179836 ], [ 85.3557745, 28.2177415 ], [ 85.3556367, 28.2175385 ], [ 85.3555419, 28.2173248 ], [ 85.3554214, 28.2170492 ], [ 85.3552582, 28.216824 ], [ 85.3550939, 28.2165683 ], [ 85.3548749, 28.216323 ], [ 85.3548004, 28.216186 ], [ 85.3547013, 28.2160753 ], [ 85.3546174, 28.2158921 ], [ 85.3546029, 28.2156445 ], [ 85.354615, 28.2154387 ], [ 85.3546433, 28.2152425 ], [ 85.3546835, 28.2147811 ], [ 85.3547627, 28.214411 ], [ 85.3548374, 28.2140348 ], [ 85.3548592, 28.2136405 ], [ 85.3548512, 28.2132576 ], [ 85.3547822, 28.212834 ], [ 85.3546037, 28.2121479 ], [ 85.3544623, 28.2117237 ], [ 85.3543764, 28.2114968 ], [ 85.354277, 28.2112688 ], [ 85.3541994, 28.2110146 ], [ 85.3541709, 28.2107702 ], [ 85.354202, 28.2105184 ], [ 85.35426910000001, 28.2101235 ], [ 85.3542678, 28.2099214 ], [ 85.3542182, 28.2097264 ], [ 85.3541944, 28.2094957 ], [ 85.354186, 28.2092868 ], [ 85.3542477, 28.2088826 ], [ 85.3543558, 28.2085319 ], [ 85.3543335, 28.2082209 ], [ 85.3544435, 28.2077953 ], [ 85.3545052, 28.2075826 ], [ 85.3546929, 28.2071926 ], [ 85.3548217, 28.2067884 ], [ 85.3548605, 28.2065511 ], [ 85.3548646, 28.2064575 ], [ 85.3548955, 28.2062059 ], [ 85.3548431, 28.2060722 ], [ 85.3548029, 28.2059091 ], [ 85.3546876, 28.2057058 ], [ 85.3545772, 28.2055263 ], [ 85.3544489, 28.2053962 ], [ 85.3543079, 28.2052212 ], [ 85.3538936, 28.2047532 ], [ 85.3537488, 28.2045311 ], [ 85.35362, 28.2043065 ], [ 85.3535745, 28.2041907 ], [ 85.3532921, 28.2037442 ], [ 85.3532002, 28.2032427 ], [ 85.352985, 28.2023396 ], [ 85.3525852, 28.2003513 ], [ 85.35248, 28.1995918 ], [ 85.3523831, 28.199336 ], [ 85.352108, 28.1990037 ], [ 85.3519543, 28.1985975 ], [ 85.3518202, 28.1980166 ], [ 85.3515916, 28.1976113 ], [ 85.351472, 28.1974739 ], [ 85.3512821, 28.1973014 ], [ 85.3510543, 28.1971358 ], [ 85.3509353, 28.197051 ], [ 85.350757, 28.1968721 ], [ 85.3505912, 28.1965873 ], [ 85.3503538, 28.1956769 ], [ 85.3502347, 28.1952771 ], [ 85.3497741, 28.1942085 ], [ 85.3491297, 28.1934251 ], [ 85.34891, 28.1920078 ], [ 85.3487117, 28.1916909 ], [ 85.3483397, 28.1911612 ], [ 85.3474878, 28.1897316 ], [ 85.3467497, 28.1886996 ], [ 85.346105, 28.1879348 ], [ 85.3459219, 28.1874569 ], [ 85.345774700000021, 28.1867874 ], [ 85.3458047, 28.1862178 ], [ 85.3451906, 28.1856063 ], [ 85.3445442, 28.1849538 ], [ 85.344102, 28.1840369 ], [ 85.3439246, 28.1836371 ], [ 85.3438114, 28.1831794 ], [ 85.3436949, 28.1827808 ], [ 85.343715, 28.1824017 ], [ 85.3436936, 28.1823194 ], [ 85.3436134, 28.1821557 ], [ 85.3434173, 28.1820751 ], [ 85.3431107, 28.1819754 ], [ 85.3429162, 28.1817393 ], [ 85.3427556, 28.1811583 ] ] } },
{ "type": "Feature", "properties": { "id": "way/329416172", "@id": "way/329416172", "admin_level": null, "alt_name": null, "alt_name:en": null, "alt_name:zh": null, "alt_name:zh-Hans": null, "alt_name:zh-Hant": null, "alt_name:zh-Latn-pinyin": null, "boat": null, "boundary": null, "intermittent": "no", "loc_name": null, "loc_name:en": null, "loc_name:zh": null, "loc_name:zh-Hans": null, "loc_name:zh-Hant": null, "name": "Chilime Khola", "name:bo": null, "name:bo-Latn-thl": null, "name:bo-Latn-wylie": null, "name:de": null, "name:en": null, "name:fr": null, "name:ko": null, "name:ne": null, "name:zh": null, "name:zh-Hans": null, "name:zh-Hant": null, "name:zh-Latn-pinyin": null, "nsdi_code": null, "reg_name": null, "reg_name:zh": null, "reg_name:zh-Hans": null, "reg_name:zh-Hant": null, "short_name": null, "short_name:en": null, "short_name:zh": null, "short_name:zh-Hans": null, "short_name:zh-Hant": null, "source": "Nepa Maps", "tidal": "yes", "waterway": "river", "wikidata": null, "zhb_code": null }, "geometry": { "type": "LineString", "coordinates": [ [ 85.2849115, 28.2166057 ], [ 85.2850328, 28.2164394 ], [ 85.2852412, 28.216281 ], [ 85.2853166, 28.2161511 ], [ 85.285416, 28.2159276 ], [ 85.2854331, 28.2157646 ], [ 85.28544340000002, 28.2156407 ], [ 85.28550850000002, 28.2155139 ], [ 85.2856148, 28.215378 ], [ 85.2857176, 28.2152421 ], [ 85.2858478, 28.2150881 ], [ 85.2858787, 28.2147287 ], [ 85.2861152, 28.2143995 ], [ 85.2862077, 28.2142968 ], [ 85.286403, 28.2141519 ], [ 85.2865641, 28.214019 ], [ 85.2866875, 28.2138529 ], [ 85.2869, 28.2135932 ], [ 85.2869822, 28.2134603 ], [ 85.2870816, 28.2133274 ], [ 85.2871982, 28.2132096 ], [ 85.2872838, 28.2131553 ], [ 85.2874689, 28.2130133 ], [ 85.287887, 28.2127989 ], [ 85.2880138, 28.2127083 ], [ 85.2881064, 28.2126026 ], [ 85.2882812, 28.2124365 ], [ 85.2884148, 28.212367 ], [ 85.2885313, 28.2122613 ], [ 85.2885828, 28.2121526 ], [ 85.2886033, 28.212059 ], [ 85.2887061, 28.2119533 ], [ 85.2888843, 28.211886799999988 ], [ 85.2890523, 28.2118506 ], [ 85.2891996, 28.2117962 ], [ 85.2893196, 28.2116573 ], [ 85.289391600000016, 28.2114973 ], [ 85.2896178, 28.2111409 ], [ 85.2897686, 28.2110986 ], [ 85.2899022, 28.2110231 ], [ 85.2900256, 28.2109083 ], [ 85.2901147, 28.2107604 ], [ 85.2901524, 28.2106093 ], [ 85.290197, 28.2104312 ], [ 85.2902861, 28.2102439 ], [ 85.2903992, 28.2099902 ], [ 85.290502, 28.2097577 ], [ 85.2905671, 28.2094979 ], [ 85.2906425, 28.2092895 ], [ 85.2906836, 28.2091053 ], [ 85.2906734, 28.2089181 ], [ 85.2906425, 28.2087127 ], [ 85.2907042, 28.2085103 ], [ 85.2907419, 28.2083805 ], [ 85.2907111, 28.2081842 ], [ 85.2906665, 28.2079939 ], [ 85.2906151, 28.2077976 ], [ 85.2905465, 28.2075952 ], [ 85.290488300000021, 28.2073808 ], [ 85.2902141, 28.2070335 ], [ 85.2901216, 28.2068492 ], [ 85.2900462, 28.2066559 ], [ 85.2899022, 28.2063841 ], [ 85.2897172, 28.2061365 ], [ 85.2896589, 28.2058737 ], [ 85.2896212, 28.2056683 ], [ 85.2896418, 28.2053452 ], [ 85.2896795, 28.2052636 ], [ 85.2897446, 28.2051368 ], [ 85.2898028, 28.2049374 ], [ 85.2897891, 28.2048438 ], [ 85.2897274, 28.20472 ], [ 85.2896281, 28.2046022 ], [ 85.2896178, 28.2043756 ], [ 85.2895938, 28.2041038 ], [ 85.2895698, 28.2038803 ], [ 85.2896109, 28.2037535 ], [ 85.2896897, 28.2036296 ], [ 85.2897857, 28.20353 ], [ 85.2898611, 28.203391 ], [ 85.2900057, 28.203149 ], [ 85.2899596, 28.203067 ], [ 85.2899328, 28.20292 ], [ 85.2899879, 28.2027688 ], [ 85.2900347, 28.2026277 ], [ 85.2900267, 28.2024188 ], [ 85.2900075, 28.2020285 ], [ 85.290118, 28.2016569 ], [ 85.290104500000012, 28.2014225 ], [ 85.2901295, 28.2012236 ], [ 85.2901803, 28.2011347 ], [ 85.2904338, 28.2009309 ], [ 85.2903716, 28.2006644 ], [ 85.290378, 28.2004589 ], [ 85.2903375, 28.2003193 ], [ 85.2904157, 28.2000548 ], [ 85.2905179, 28.1999733 ], [ 85.2905378, 28.1996828 ], [ 85.2905778, 28.1995186 ], [ 85.290704, 28.1993636 ], [ 85.2907925, 28.1992985 ], [ 85.2909266, 28.1992702 ], [ 85.2911338, 28.1992223 ], [ 85.2912354, 28.1991836 ], [ 85.2913965, 28.1990538 ], [ 85.2915164, 28.1988755 ], [ 85.2915679, 28.1987336 ], [ 85.2915816, 28.1985765 ], [ 85.2916322, 28.1983907 ], [ 85.2916023, 28.1982764 ], [ 85.2915492, 28.1981946 ], [ 85.291472, 28.198126 ], [ 85.291336, 28.1980685 ], [ 85.2911861, 28.1980189 ], [ 85.2910933, 28.1979391 ], [ 85.291056900000015, 28.1978379 ], [ 85.291096, 28.1976865 ], [ 85.291183, 28.1975775 ], [ 85.291292400000017, 28.1973914 ], [ 85.2914608, 28.1973914 ], [ 85.291844, 28.1971976 ], [ 85.2919035, 28.1971453 ], [ 85.2920271, 28.1969317 ], [ 85.2920738, 28.196694 ], [ 85.2921591, 28.1966511 ], [ 85.292182, 28.1965901 ], [ 85.2920954, 28.1964801 ], [ 85.2920845, 28.1964227 ], [ 85.2921674, 28.1962781 ], [ 85.2922185, 28.1961842 ], [ 85.2922691, 28.1960442 ], [ 85.292277, 28.1959178 ], [ 85.2924542, 28.1957575 ], [ 85.2926107, 28.1956098 ], [ 85.2927867, 28.1953487 ], [ 85.292923, 28.1952813 ], [ 85.2931542, 28.1951445 ], [ 85.293331400000014, 28.1949834 ], [ 85.2934995, 28.194856 ], [ 85.2935999, 28.1946314 ], [ 85.2936799, 28.1943409 ], [ 85.2941015, 28.1936468 ], [ 85.2941161, 28.1935699 ], [ 85.294167, 28.1934673 ], [ 85.2943027, 28.193307199999989 ], [ 85.2943996, 28.1930807 ], [ 85.2944238, 28.1930359 ], [ 85.2945184, 28.1929141 ], [ 85.2946008, 28.1927945 ], [ 85.2945783, 28.1927324 ], [ 85.2945994, 28.1926277 ], [ 85.2946692, 28.1926335 ], [ 85.2946919, 28.192619 ], [ 85.294679, 28.1925528 ], [ 85.2948326, 28.1925453 ], [ 85.2949336, 28.192476 ], [ 85.29518, 28.1922946 ], [ 85.2953817, 28.1921366 ], [ 85.2954181, 28.1919999 ], [ 85.2954956, 28.1918834 ], [ 85.2957977, 28.1918428 ], [ 85.2959783, 28.1916888 ], [ 85.2961188, 28.1915871 ], [ 85.296282, 28.1914898 ], [ 85.2964888, 28.1914235 ], [ 85.2966856, 28.1914471 ], [ 85.2969765, 28.1916047 ], [ 85.2973496, 28.191551 ], [ 85.2975909, 28.1914532 ], [ 85.2977206, 28.1913047 ], [ 85.297874, 28.1909829 ], [ 85.2978058, 28.1906174 ], [ 85.2978859, 28.190375 ], [ 85.2978936, 28.1901455 ], [ 85.2980267, 28.1898977 ], [ 85.298165, 28.1897543 ], [ 85.2982838, 28.1896407 ], [ 85.2983187, 28.1894388 ], [ 85.2984957, 28.1890017 ], [ 85.2986691, 28.188867 ], [ 85.2988669, 28.188749 ], [ 85.2993354, 28.1883622 ], [ 85.2993758, 28.1881273 ], [ 85.2991981, 28.1877429 ], [ 85.2991872, 28.1874304 ], [ 85.2993035, 28.187118 ], [ 85.2995182, 28.1868291 ], [ 85.2997557, 28.1866812 ], [ 85.2999529, 28.1865806 ], [ 85.3001073, 28.1864622 ], [ 85.3003678, 28.1861272 ], [ 85.3004573, 28.1859997 ], [ 85.300663, 28.1855904 ], [ 85.3007985, 28.1853359 ], [ 85.3009712, 28.1851485 ], [ 85.3013711, 28.1849653 ], [ 85.3020596, 28.1849763 ], [ 85.3028849, 28.1846682 ], [ 85.3032878, 28.1845448 ], [ 85.3035177, 28.1844335 ], [ 85.3035777, 28.1843123 ], [ 85.304047, 28.1837899 ], [ 85.3042315, 28.183681199999988 ], [ 85.3043995, 28.1836436 ], [ 85.3044725, 28.1836591 ], [ 85.3046031, 28.1836868 ], [ 85.3050897, 28.1836573 ], [ 85.3053681, 28.1835723 ], [ 85.3055146, 28.1834961 ], [ 85.3056557, 28.1832349 ], [ 85.3056698, 28.1830923 ], [ 85.3056963, 28.1828231 ], [ 85.3058006, 28.182574 ], [ 85.3065189, 28.1819578 ], [ 85.3072471, 28.1811714 ], [ 85.3077972, 28.1810339 ], [ 85.30819, 28.1806955 ], [ 85.3084204, 28.18024 ], [ 85.3088541, 28.1798694 ], [ 85.3092205, 28.1795985 ], [ 85.3094568, 28.1795007 ], [ 85.3096468, 28.179541 ], [ 85.3099976, 28.1798503 ], [ 85.3111661, 28.1802755 ], [ 85.312294, 28.180559 ], [ 85.3129269, 28.1805541 ], [ 85.313603, 28.1804255 ], [ 85.3148726, 28.1807044 ], [ 85.315817600000017, 28.1803261 ], [ 85.3164969, 28.1805113 ], [ 85.317229, 28.1808251 ], [ 85.3175791, 28.1811832 ], [ 85.3179436, 28.181418 ], [ 85.318335600000012, 28.1811549 ], [ 85.318854800000011, 28.1810078 ], [ 85.3194382, 28.1806541 ], [ 85.3201107, 28.1803368 ], [ 85.32099030000002, 28.1799536 ], [ 85.3214306, 28.1799764 ], [ 85.3218824, 28.1802505 ], [ 85.32208, 28.1802598 ], [ 85.3222622, 28.1802046 ], [ 85.3226573, 28.1799143 ], [ 85.3231918, 28.1796835 ], [ 85.3236297, 28.1797483 ], [ 85.3242983, 28.1799498 ], [ 85.3248773, 28.1799055 ], [ 85.3254318, 28.1795828 ], [ 85.3266663, 28.1794397 ], [ 85.3275185, 28.1794927 ], [ 85.3282813, 28.1793801 ], [ 85.3285069, 28.1793843 ], [ 85.3287314, 28.1795509 ], [ 85.3290587, 28.1796953 ], [ 85.3294914, 28.1799682 ], [ 85.3297886, 28.1799501 ], [ 85.3300884, 28.1800149 ], [ 85.3303585, 28.1801982 ], [ 85.330498, 28.1803344 ], [ 85.3307729, 28.1804256 ], [ 85.3313217, 28.1805423 ], [ 85.331507, 28.1807088 ], [ 85.3319102, 28.1807208 ], [ 85.3321211, 28.1805721 ], [ 85.332386900000017, 28.1805832 ], [ 85.332649300000014, 28.1806201 ], [ 85.3328651, 28.1805293 ], [ 85.3332638, 28.1806164 ], [ 85.3337901, 28.1807341 ], [ 85.3343009, 28.1807418 ], [ 85.3347058, 28.1806804 ], [ 85.3353488, 28.1807279 ], [ 85.3359821, 28.1809139 ], [ 85.3366041, 28.1812551 ], [ 85.3368884, 28.1812977 ], [ 85.337036, 28.1814348 ], [ 85.3372373, 28.1817141 ], [ 85.337685, 28.181955 ], [ 85.33823, 28.1820926 ], [ 85.3387524, 28.1819855 ], [ 85.3391167, 28.1818875 ], [ 85.3393053, 28.1819012 ], [ 85.3395412, 28.1819954 ], [ 85.3397039, 28.18211 ], [ 85.3400508, 28.1821488 ], [ 85.3403974, 28.1821994 ], [ 85.3408132, 28.1821903 ], [ 85.3411556, 28.1821467 ], [ 85.3413442, 28.1820243 ], [ 85.3415941, 28.1820253 ], [ 85.3419268, 28.1818381 ], [ 85.3427186, 28.1812149 ] ] } },
{ "type": "Feature", "properties": { "id": "way/401818844", "@id": "way/401818844", "admin_level": null, "alt_name": "吉隆藏布;Kerung Khola", "alt_name:en": "Kerung Khola;Trisuli;Gyirong Zangbo", "alt_name:zh": null, "alt_name:zh-Hans": null, "alt_name:zh-Hant": null, "alt_name:zh-Latn-pinyin": "jílóng zàngbù", "boat": null, "boundary": null, "intermittent": null, "loc_name": null, "loc_name:en": null, "loc_name:zh": null, "loc_name:zh-Hans": null, "loc_name:zh-Hant": null, "name": "吉隆藏布", "name:bo": "སྐྱིད་གྲོང་གཙང་པོ", "name:bo-Latn-thl": "kyi drong tsang po", "name:bo-Latn-wylie": "skyid grong gtsang po", "name:de": null, "name:en": "Kyirong Tsangpo", "name:fr": null, "name:ko": null, "name:ne": null, "name:zh": "吉隆藏布", "name:zh-Hans": "吉隆藏布", "name:zh-Hant": "吉隆藏布", "name:zh-Latn-pinyin": "tèěrsūlǐ hé", "nsdi_code": "JD3404", "reg_name": null, "reg_name:zh": null, "reg_name:zh-Hans": null, "reg_name:zh-Hant": null, "short_name": null, "short_name:en": null, "short_name:zh": null, "short_name:zh-Hans": null, "short_name:zh-Hant": null, "source": null, "tidal": null, "waterway": "river", "wikidata": null, "zhb_code": "17JD030800" }, "geometry": { "type": "LineString", "coordinates": [ [ 85.3479506, 28.3012163 ], [ 85.348052400000014, 28.3008692 ], [ 85.348084, 28.3007016 ], [ 85.3481156, 28.300534 ], [ 85.3480987, 28.3000869 ], [ 85.3480355, 28.2994704 ], [ 85.3479904, 28.2991233 ], [ 85.3479191, 28.2988958 ], [ 85.347796, 28.2987168 ], [ 85.3478949, 28.2982983 ], [ 85.3483235, 28.2979932 ], [ 85.3484163, 28.2977832 ], [ 85.3484214, 28.2974532 ], [ 85.3480113, 28.2969925 ], [ 85.3479274, 28.2963899 ], [ 85.348042, 28.2959999 ], [ 85.3480584, 28.294634099999989 ], [ 85.3481436, 28.294058 ], [ 85.3483047, 28.2932027 ], [ 85.3482576, 28.2927536 ], [ 85.3478893, 28.2922165 ], [ 85.3473049, 28.2916754 ], [ 85.3470117, 28.2912995 ], [ 85.3470253, 28.2908118 ], [ 85.3471766, 28.2898376 ], [ 85.3473733, 28.289452 ], [ 85.3474923, 28.2889743 ], [ 85.3475356, 28.2888584 ], [ 85.3478491, 28.2886406 ], [ 85.3480368, 28.2884716 ], [ 85.3482378, 28.2882566 ], [ 85.3483157, 28.2878865 ], [ 85.3483768, 28.287761 ], [ 85.348535, 28.2877123 ], [ 85.3489632, 28.2877366 ], [ 85.3491261, 28.2876909 ], [ 85.3494676, 28.2875083 ], [ 85.3496942, 28.2874464 ], [ 85.3498994, 28.2874234 ], [ 85.3501921, 28.2874855 ], [ 85.350303600000018, 28.2874306 ], [ 85.3510341, 28.286988 ], [ 85.3515257, 28.286654 ], [ 85.3518689, 28.2865071 ], [ 85.3522684, 28.2864615 ], [ 85.3531056, 28.2864545 ], [ 85.353662300000011, 28.2864793 ], [ 85.35444, 28.2866575 ], [ 85.3552478, 28.2866232 ], [ 85.3562547, 28.286417 ], [ 85.3571961, 28.2862615 ], [ 85.3577558, 28.2860931 ] ] } },
{ "type": "Feature", "properties": { "id": "way/401818847", "@id": "way/401818847", "admin_level": null, "alt_name": "吉隆藏布", "alt_name:en": "Bhulung Khola", "alt_name:zh": "吉隆藏布", "alt_name:zh-Hans": "吉隆藏布", "alt_name:zh-Hant": "吉隆藏布", "alt_name:zh-Latn-pinyin": "jílóng zàngbù", "boat": null, "boundary": null, "intermittent": null, "loc_name": "Gyirong Zangbo", "loc_name:en": "Gyirong Zangbo", "loc_name:zh": null, "loc_name:zh-Hans": null, "loc_name:zh-Hant": null, "name": "吉隆藏布", "name:bo": "སྐྱིད་གྲོང་གཙང་པོ", "name:bo-Latn-thl": "kyi drong tsang po", "name:bo-Latn-wylie": "skyid grong gtsang po", "name:de": null, "name:en": "Kyirong Tsangpo", "name:fr": null, "name:ko": null, "name:ne": null, "name:zh": "吉隆藏布", "name:zh-Hans": "吉隆藏布", "name:zh-Hant": "吉隆藏布", "name:zh-Latn-pinyin": "tèěrsūlǐ hé", "nsdi_code": "JD3404", "reg_name": null, "reg_name:zh": null, "reg_name:zh-Hans": null, "reg_name:zh-Hant": null, "short_name": "Trisuli", "short_name:en": "Trisuli", "short_name:zh": null, "short_name:zh-Hans": null, "short_name:zh-Hant": null, "source": null, "tidal": null, "waterway": "river", "wikidata": null, "zhb_code": "17JD030800" }, "geometry": { "type": "LineString", "coordinates": [ [ 85.3574575, 28.3680547 ], [ 85.357769, 28.3675415 ], [ 85.3579215, 28.3667513 ], [ 85.3580838, 28.3662672 ], [ 85.3583722, 28.3661097 ], [ 85.3587069, 28.3659902 ], [ 85.3591012, 28.365649 ], [ 85.3597406, 28.3653922 ], [ 85.3598334, 28.3651837 ], [ 85.3598732, 28.3648979 ], [ 85.3595086, 28.364443 ], [ 85.3594722, 28.3640289 ], [ 85.3589817, 28.3636469 ], [ 85.3592037, 28.3631278 ], [ 85.3597704, 28.3621859 ], [ 85.3600039, 28.3619153 ], [ 85.3600422, 28.361871 ], [ 85.3600256, 28.3614656 ], [ 85.359747200000015, 28.3612061 ], [ 85.3597506, 28.3607016 ], [ 85.3595153, 28.3604041 ], [ 85.358792800000018, 28.3599317 ], [ 85.357908, 28.3598938 ], [ 85.3567448, 28.3597101 ], [ 85.3564101, 28.3595497 ], [ 85.3564101, 28.3593514 ], [ 85.3566122, 28.3589606 ], [ 85.3565758, 28.3586952 ], [ 85.3562841, 28.3582053 ], [ 85.3565393, 28.3574033 ], [ 85.3568542, 28.3569775 ], [ 85.3569569, 28.3559976 ], [ 85.3574109, 28.3552802 ], [ 85.357845, 28.3543878 ], [ 85.3580704, 28.3538104 ], [ 85.3581619, 28.3534003 ], [ 85.3579885, 28.3528683 ], [ 85.3577401, 28.352493 ], [ 85.3574707, 28.3524022 ], [ 85.3570465, 28.3523239 ], [ 85.3568122, 28.3521651 ], [ 85.3566317, 28.3518124 ], [ 85.3567302, 28.3510989 ], [ 85.357157, 28.3504618 ], [ 85.3571101, 28.3502308 ], [ 85.356529, 28.3497111 ], [ 85.3561634, 28.3486552 ], [ 85.355826, 28.3478963 ], [ 85.3557932, 28.3473477 ], [ 85.3552823, 28.3465764 ], [ 85.3547434, 28.3464197 ], [ 85.3538342, 28.3464321 ], [ 85.3531452, 28.346263 ], [ 85.3522969, 28.3454958 ], [ 85.351383, 28.344444 ], [ 85.3510034, 28.3438665 ], [ 85.3500755, 28.3433963 ], [ 85.3498364, 28.3429425 ], [ 85.3493818, 28.3415937 ], [ 85.3491006, 28.3411895 ], [ 85.3485007, 28.3406367 ], [ 85.3477978, 28.3394075 ], [ 85.3476946, 28.3386568 ], [ 85.3478332, 28.3378016 ], [ 85.3477536, 28.3374778 ], [ 85.3467329, 28.3367311 ], [ 85.345984, 28.3362702 ], [ 85.345450400000018, 28.3355935 ], [ 85.3454272, 28.335016 ], [ 85.345182, 28.3346689 ], [ 85.344665, 28.3345463 ], [ 85.3440321, 28.3343538 ], [ 85.343535, 28.3336567 ], [ 85.3433162, 28.3328866 ], [ 85.3428854, 28.3321865 ], [ 85.3426302, 28.3311918 ], [ 85.3418581, 28.3299317 ], [ 85.3417918, 28.3295933 ], [ 85.3412914, 28.3291907 ], [ 85.3410959, 28.3288757 ], [ 85.3413245, 28.3282048 ], [ 85.3411224, 28.3276914 ], [ 85.3407976, 28.3269154 ], [ 85.3400255, 28.3259936 ], [ 85.3396576, 28.3247713 ], [ 85.3398333, 28.3240449 ], [ 85.3399334, 28.3235843 ], [ 85.339991, 28.3233195 ], [ 85.340276, 28.3230657 ], [ 85.3404317, 28.3221701 ], [ 85.3408592, 28.32161 ], [ 85.3410183, 28.3207203 ], [ 85.3411475, 28.3202681 ], [ 85.3409984, 28.3194833 ], [ 85.3411111, 28.3192528 ], [ 85.341237, 28.3191157 ], [ 85.3416711, 28.3189378 ], [ 85.3418335, 28.3185323 ], [ 85.3422643, 28.3174091 ], [ 85.3429072, 28.3162713 ], [ 85.3434739, 28.3157461 ], [ 85.3437424, 28.3150168 ], [ 85.3443455, 28.3146433 ], [ 85.34472, 28.3141036 ], [ 85.3450448, 28.3138119 ], [ 85.3450845, 28.3135435 ], [ 85.3450017, 28.3132517 ], [ 85.3450878, 28.3130591 ], [ 85.3455882, 28.3128345 ], [ 85.3458103, 28.3124669 ], [ 85.345797, 28.3121722 ], [ 85.3454723, 28.3116471 ], [ 85.3455849, 28.311224 ], [ 85.3458434, 28.311014 ], [ 85.34586, 28.3105822 ], [ 85.3456114, 28.3103283 ], [ 85.3455186, 28.3090883 ], [ 85.3456578, 28.3078513 ], [ 85.345966, 28.3072356 ], [ 85.3459594, 28.3066667 ], [ 85.3458534, 28.3061853 ], [ 85.3459992, 28.3058818 ], [ 85.3464167, 28.3054325 ], [ 85.3468078, 28.304601 ], [ 85.3469569, 28.3041195 ] ] } },
{ "type": "Feature", "properties": { "id": "way/809865765", "@id": "way/809865765", "admin_level": "9", "alt_name": null, "alt_name:en": null, "alt_name:zh": null, "alt_name:zh-Hans": null, "alt_name:zh-Hant": null, "alt_name:zh-Latn-pinyin": null, "boat": null, "boundary": "administrative", "intermittent": "yes", "loc_name": null, "loc_name:en": null, "loc_name:zh": null, "loc_name:zh-Hans": null, "loc_name:zh-Hant": null, "name": "Chilime Khola", "name:bo": null, "name:bo-Latn-thl": null, "name:bo-Latn-wylie": null, "name:de": null, "name:en": null, "name:fr": null, "name:ko": null, "name:ne": null, "name:zh": null, "name:zh-Hans": null, "name:zh-Hant": null, "name:zh-Latn-pinyin": null, "nsdi_code": null, "reg_name": null, "reg_name:zh": null, "reg_name:zh-Hans": null, "reg_name:zh-Hant": null, "short_name": null, "short_name:en": null, "short_name:zh": null, "short_name:zh-Hans": null, "short_name:zh-Hant": null, "source": "Nepa Maps", "tidal": null, "waterway": "river", "wikidata": null, "zhb_code": null }, "geometry": { "type": "LineString", "coordinates": [ [ 85.3427186, 28.1812149 ], [ 85.3427556, 28.1811583 ] ] } },
{ "type": "Feature", "properties": { "id": "way/809865767", "@id": "way/809865767", "admin_level": null, "alt_name": null, "alt_name:en": null, "alt_name:zh": null, "alt_name:zh-Hans": null, "alt_name:zh-Hant": null, "alt_name:zh-Latn-pinyin": null, "boat": null, "boundary": null, "intermittent": "no", "loc_name": null, "loc_name:en": null, "loc_name:zh": null, "loc_name:zh-Hans": null, "loc_name:zh-Hant": null, "name": "भोटे कोशी", "name:bo": null, "name:bo-Latn-thl": null, "name:bo-Latn-wylie": null, "name:de": null, "name:en": "Bhote Koshi", "name:fr": null, "name:ko": null, "name:ne": "भोटे कोशी", "name:zh": "波达柯西河", "name:zh-Hans": null, "name:zh-Hant": null, "name:zh-Latn-pinyin": null, "nsdi_code": null, "reg_name": null, "reg_name:zh": null, "reg_name:zh-Hans": null, "reg_name:zh-Hant": null, "short_name": null, "short_name:en": null, "short_name:zh": null, "short_name:zh-Hans": null, "short_name:zh-Hant": null, "source": null, "tidal": "no", "waterway": "river", "wikidata": null, "zhb_code": null }, "geometry": { "type": "LineString", "coordinates": [ [ 85.3427556, 28.1811583 ], [ 85.3426722, 28.1807772 ], [ 85.3426633, 28.1803773 ], [ 85.3426728, 28.1801701 ], [ 85.3426392, 28.1799331 ], [ 85.3427327, 28.1793587 ], [ 85.3428027, 28.1789346 ], [ 85.3427577, 28.1785799 ], [ 85.3428829, 28.1782323 ], [ 85.3429865, 28.1779971 ], [ 85.3429497, 28.177811 ], [ 85.3428838, 28.1773014 ], [ 85.3427835, 28.1769611 ], [ 85.3427678, 28.1765348 ], [ 85.3427535, 28.1764462 ], [ 85.3427038, 28.1761377 ], [ 85.3427405, 28.1758528 ], [ 85.3427418, 28.1755148 ], [ 85.3427748, 28.1753508 ], [ 85.3429465, 28.1743452 ], [ 85.3430013, 28.1739672 ], [ 85.3429266, 28.1738088 ], [ 85.3429127, 28.1734989 ], [ 85.3428061, 28.1731357 ], [ 85.3426822, 28.1728292 ], [ 85.3427098, 28.17265 ], [ 85.3426868, 28.1724432 ], [ 85.3427036, 28.1721164 ], [ 85.3426869, 28.1713281 ], [ 85.3426739, 28.1709703 ], [ 85.3427953, 28.1706038 ], [ 85.3427419, 28.1703673 ], [ 85.3427625, 28.1701237 ], [ 85.3427062, 28.1699171 ], [ 85.3426577, 28.1697139 ], [ 85.3425684, 28.1693096 ], [ 85.3424341, 28.1683292 ], [ 85.3424312, 28.1681469 ], [ 85.3424173, 28.1677745 ], [ 85.3424406, 28.1675819 ], [ 85.3424861, 28.1674392 ], [ 85.3425707, 28.167275 ], [ 85.3426658, 28.1671531 ], [ 85.3427899, 28.1669935 ], [ 85.342845, 28.1666895 ], [ 85.3428768, 28.1666029 ], [ 85.3428934, 28.1665014 ], [ 85.3428912, 28.1663782 ], [ 85.3428463, 28.1661297 ], [ 85.342693, 28.1657707 ], [ 85.34257190000001, 28.1655778 ], [ 85.3421898, 28.1650042 ], [ 85.3420658, 28.1648709 ], [ 85.3419347, 28.1647573 ], [ 85.3418024, 28.1646622 ], [ 85.341557200000011, 28.1645234 ], [ 85.3413057, 28.1644225 ] ] } },
{ "type": "Feature", "properties": { "id": "way/904894054", "@id": "way/904894054", "admin_level": null, "alt_name": "吉隆藏布;Kerung Khola", "alt_name:en": "Kyirong Tsangpo;Kerung Khola;Trisuli;Gyirong Tsangpo", "alt_name:zh": null, "alt_name:zh-Hans": null, "alt_name:zh-Hant": null, "alt_name:zh-Latn-pinyin": "jílóng zàngbù", "boat": null, "boundary": null, "intermittent": null, "loc_name": null, "loc_name:en": null, "loc_name:zh": null, "loc_name:zh-Hans": null, "loc_name:zh-Hant": null, "name": "吉隆藏布", "name:bo": "སྐྱིད་གྲོང་གཙང་པོ", "name:bo-Latn-thl": "kyi drong tsang po", "name:bo-Latn-wylie": "skyid grong gtsang po", "name:de": null, "name:en": "Gyirong Zangbo", "name:fr": null, "name:ko": "지롱장포", "name:ne": null, "name:zh": "特尔苏里河", "name:zh-Hans": null, "name:zh-Hant": null, "name:zh-Latn-pinyin": "tèěrsūlǐ hé", "nsdi_code": "JD3404", "reg_name": null, "reg_name:zh": null, "reg_name:zh-Hans": null, "reg_name:zh-Hant": null, "short_name": null, "short_name:en": null, "short_name:zh": null, "short_name:zh-Hans": null, "short_name:zh-Hant": null, "source": null, "tidal": null, "waterway": "river", "wikidata": null, "zhb_code": "17JD030800" }, "geometry": { "type": "LineString", "coordinates": [ [ 85.3577558, 28.2860931 ], [ 85.3584034, 28.2857942 ], [ 85.3589611, 28.2855967 ], [ 85.359940100000017, 28.2855826 ], [ 85.3608553, 28.2856584 ], [ 85.3612879, 28.2857813 ], [ 85.3615326, 28.2857266 ], [ 85.3616887, 28.2855861 ], [ 85.3618015, 28.2853413 ], [ 85.3619339, 28.2852397 ], [ 85.3622278, 28.2852094 ], [ 85.3624816, 28.2852821 ], [ 85.3628161, 28.2854166 ], [ 85.3632729, 28.2854634 ], [ 85.3637187, 28.2854262 ], [ 85.3641511, 28.2854741 ], [ 85.364578300000019, 28.2856122 ], [ 85.3650109, 28.2858023 ], [ 85.3653433, 28.2858093 ], [ 85.3658655, 28.2856826 ], [ 85.3664442, 28.2858021 ], [ 85.367241, 28.2859748 ], [ 85.3677807, 28.2859696 ], [ 85.3683817, 28.2857703 ], [ 85.3687267, 28.2857566 ], [ 85.3691856, 28.2856252 ], [ 85.3695808, 28.2855726 ], [ 85.37017130000001, 28.2854422 ], [ 85.3710125, 28.2850789 ], [ 85.3713189, 28.2849218 ], [ 85.3717404, 28.2846285 ], [ 85.3720985, 28.2844951 ], [ 85.3725361, 28.2844247 ], [ 85.3729293, 28.2842834 ], [ 85.3750741, 28.2830438 ], [ 85.3758958, 28.2823371 ], [ 85.3765521, 28.2809444 ], [ 85.3767292, 28.2799153 ], [ 85.3769132, 28.2795001 ], [ 85.3771382, 28.2789634 ], [ 85.3771748, 28.2786189 ], [ 85.376979, 28.2780546 ] ] } },
{ "type": "Feature", "properties": { "id": "way/928822514", "@id": "way/928822514", "admin_level": null, "alt_name": null, "alt_name:en": null, "alt_name:zh": null, "alt_name:zh-Hans": null, "alt_name:zh-Hant": null, "alt_name:zh-Latn-pinyin": null, "boat": null, "boundary": null, "intermittent": null, "loc_name": null, "loc_name:en": null, "loc_name:zh": null, "loc_name:zh-Hans": null, "loc_name:zh-Hant": null, "name": "Trishuli River", "name:bo": null, "name:bo-Latn-thl": null, "name:bo-Latn-wylie": null, "name:de": null, "name:en": null, "name:fr": null, "name:ko": null, "name:ne": null, "name:zh": null, "name:zh-Hans": null, "name:zh-Hant": null, "name:zh-Latn-pinyin": null, "nsdi_code": null, "reg_name": null, "reg_name:zh": null, "reg_name:zh-Hans": null, "reg_name:zh-Hant": null, "short_name": null, "short_name:en": null, "short_name:zh": null, "short_name:zh-Hans": null, "short_name:zh-Hant": null, "source": null, "tidal": null, "waterway": "river", "wikidata": null, "zhb_code": null }, "geometry": { "type": "LineString", "coordinates": [ [ 85.3076233, 28.1407319 ], [ 85.3075203, 28.1406605 ], [ 85.3060828, 28.1393561 ], [ 85.3046923, 28.1375475 ], [ 85.30333640000002, 28.1350049 ], [ 85.3028335, 28.1346139 ], [ 85.3026186, 28.1345063 ], [ 85.3025608, 28.1344347 ], [ 85.302528, 28.1343363 ], [ 85.3026272, 28.1340357 ], [ 85.3026116, 28.1338612 ], [ 85.3023343, 28.1336234 ], [ 85.3011448, 28.1326205 ], [ 85.3009424, 28.132384 ], [ 85.3006023, 28.1315057 ], [ 85.3004252, 28.1313217 ], [ 85.3004022, 28.1311802 ], [ 85.3005091, 28.1310402 ], [ 85.3006002, 28.1309499 ], [ 85.3006023, 28.1308019 ], [ 85.3004923, 28.1305231 ], [ 85.3004513, 28.1303875 ], [ 85.300565, 28.1301279 ], [ 85.3005771, 28.1299159 ], [ 85.3004577, 28.1297003 ], [ 85.3002729, 28.1294918 ], [ 85.2999343, 28.1291096 ], [ 85.2987956, 28.128339 ], [ 85.2985606, 28.128045 ], [ 85.2981267, 28.1275022 ] ] } },
{ "type": "Feature", "properties": { "id": "way/934964391", "@id": "way/934964391", "admin_level": null, "alt_name": null, "alt_name:en": null, "alt_name:zh": null, "alt_name:zh-Hans": null, "alt_name:zh-Hant": null, "alt_name:zh-Latn-pinyin": null, "boat": null, "boundary": null, "intermittent": null, "loc_name": null, "loc_name:en": null, "loc_name:zh": null, "loc_name:zh-Hans": null, "loc_name:zh-Hant": null, "name": "लाङटाङ खोला", "name:bo": null, "name:bo-Latn-thl": null, "name:bo-Latn-wylie": null, "name:de": null, "name:en": "Langtang Khola", "name:fr": null, "name:ko": null, "name:ne": "लाङटाङ खोला", "name:zh": null, "name:zh-Hans": null, "name:zh-Hant": null, "name:zh-Latn-pinyin": null, "nsdi_code": null, "reg_name": null, "reg_name:zh": null, "reg_name:zh-Hans": null, "reg_name:zh-Hant": null, "short_name": null, "short_name:en": null, "short_name:zh": null, "short_name:zh-Hans": null, "short_name:zh-Hant": null, "source": null, "tidal": null, "waterway": "river", "wikidata": null, "zhb_code": null }, "geometry": { "type": "LineString", "coordinates": [ [ 85.398785800000013, 28.155585 ], [ 85.3982644, 28.1555076 ], [ 85.397376900000012, 28.1553287 ], [ 85.3971174, 28.1550612 ], [ 85.3961712, 28.1546873 ], [ 85.3954555, 28.1547795 ], [ 85.3944269, 28.1547003 ], [ 85.3923287, 28.1546544 ], [ 85.3896236, 28.1544327 ], [ 85.3870612, 28.1539247 ], [ 85.3862282, 28.1537468 ], [ 85.3856349, 28.1536678 ], [ 85.3850776, 28.1534773 ], [ 85.3844091, 28.1534195 ], [ 85.3836938, 28.1534214 ], [ 85.3827674, 28.1537759 ], [ 85.3826443, 28.153823 ], [ 85.3818118, 28.153798 ], [ 85.3814565, 28.1537874 ], [ 85.3806492, 28.1535027 ], [ 85.3796632, 28.1530198 ], [ 85.3782085, 28.1525472 ], [ 85.3780199, 28.1524859 ], [ 85.3768802, 28.1518198 ], [ 85.3766146, 28.1516435 ], [ 85.376244, 28.1515243 ], [ 85.3758496, 28.1517089 ], [ 85.3754512, 28.1519017 ], [ 85.3752385, 28.1520148 ], [ 85.3747332, 28.1520131 ], [ 85.374295, 28.1517132 ], [ 85.3740298, 28.1516776 ], [ 85.3736031, 28.1518555 ], [ 85.373038, 28.1518352 ], [ 85.3719894, 28.1516225 ], [ 85.3711291, 28.1512487 ], [ 85.3708076, 28.1511303 ], [ 85.3704971, 28.1512199 ], [ 85.3691557, 28.1517996 ], [ 85.3686377, 28.1518386 ], [ 85.3681448, 28.1518187 ], [ 85.3672476, 28.1515255 ], [ 85.366674, 28.1514166 ], [ 85.3660404, 28.1510593 ], [ 85.3657356, 28.1510381 ], [ 85.3654415, 28.1511434 ], [ 85.365015500000013, 28.1518626 ], [ 85.3643482, 28.1520855 ], [ 85.3635969, 28.1520612 ], [ 85.3627911, 28.1519245 ], [ 85.3622468, 28.1519248 ], [ 85.361568800000015, 28.1517352 ], [ 85.3610207, 28.1517666 ], [ 85.3590767, 28.152611 ], [ 85.3584266, 28.1523639 ], [ 85.3576478, 28.1529692 ], [ 85.357081, 28.1532485 ], [ 85.3569714, 28.1533152 ], [ 85.3556815, 28.1532966 ], [ 85.3552174, 28.1538382 ], [ 85.3540506, 28.1545344 ], [ 85.3534703, 28.1551563 ], [ 85.3526357, 28.15548 ], [ 85.3522939, 28.1560083 ], [ 85.3513311, 28.1567275 ], [ 85.3509931, 28.1575387 ], [ 85.3506029, 28.1577307 ], [ 85.3496611, 28.1579808 ], [ 85.349402, 28.1581876 ], [ 85.3490352, 28.1589686 ], [ 85.3484564, 28.1597092 ], [ 85.3482331, 28.1597952 ], [ 85.3481903, 28.1599048 ], [ 85.3482314, 28.1602019 ], [ 85.3478195, 28.1608545 ], [ 85.3468513, 28.161409 ], [ 85.3464789, 28.1618952 ], [ 85.34562, 28.1626645 ], [ 85.3452328, 28.1628289 ], [ 85.3450075, 28.1629401 ], [ 85.3447865, 28.162969 ], [ 85.3434583, 28.1635943 ], [ 85.3420448, 28.1639834 ], [ 85.3413057, 28.1644225 ] ] } },
{ "type": "Feature", "properties": { "id": "way/937405875", "@id": "way/937405875", "admin_level": null, "alt_name": "伦德科拉河", "alt_name:en": "Lhende Khola", "alt_name:zh": "伦德科拉河", "alt_name:zh-Hans": "伦德科拉河", "alt_name:zh-Hant": "倫德科拉河", "alt_name:zh-Latn-pinyin": null, "boat": null, "boundary": null, "intermittent": "no", "loc_name": "Lhende River", "loc_name:en": "Lhende River", "loc_name:zh": null, "loc_name:zh-Hans": null, "loc_name:zh-Hant": null, "name": "东林藏布", "name:bo": null, "name:bo-Latn-thl": null, "name:bo-Latn-wylie": null, "name:de": "Lhende", "name:en": "Lende Khola", "name:fr": "Lende Khola", "name:ko": "렌데강;렌데콜라강", "name:ne": "लेन्डे खोला", "name:zh": "东林藏布", "name:zh-Hans": "东林藏布", "name:zh-Hant": "東林藏布", "name:zh-Latn-pinyin": null, "nsdi_code": null, "reg_name": null, "reg_name:zh": null, "reg_name:zh-Hans": null, "reg_name:zh-Hant": null, "short_name": null, "short_name:en": null, "short_name:zh": null, "short_name:zh-Hans": null, "short_name:zh-Hant": null, "source": null, "tidal": "no", "waterway": "river", "wikidata": "Q28961063", "zhb_code": null }, "geometry": { "type": "LineString", "coordinates": [ [ 85.430690700000014, 28.3303723 ], [ 85.4295577, 28.3301489 ], [ 85.4290388, 28.3300499 ], [ 85.4282136, 28.3302783 ], [ 85.4276964, 28.3302433 ], [ 85.4263038, 28.3305113 ], [ 85.4257329, 28.3304717 ], [ 85.4253074, 28.3302417 ], [ 85.4248974, 28.330126 ], [ 85.4244148, 28.3301671 ], [ 85.4237626, 28.3300073 ], [ 85.4218277, 28.3297787 ], [ 85.4203618, 28.3292591 ], [ 85.4194482, 28.3281922 ], [ 85.4192233, 28.3281206 ], [ 85.4187165, 28.3277354 ], [ 85.4180522, 28.3273943 ], [ 85.4173135, 28.3271019 ], [ 85.4169226, 28.3270516 ], [ 85.4165524, 28.3272785 ], [ 85.4162185, 28.3273836 ], [ 85.4156909, 28.327376 ], [ 85.415338, 28.3272039 ], [ 85.4151906, 28.3270666 ], [ 85.4145942, 28.3265111 ], [ 85.4136912, 28.3253629 ], [ 85.4136254, 28.3247538 ], [ 85.4132827, 28.3239437 ], [ 85.4131774, 28.3234868 ], [ 85.4130732, 28.3229447 ], [ 85.4132889, 28.3226354 ], [ 85.4133122, 28.3222569 ], [ 85.4133176, 28.321797 ], [ 85.4135482, 28.3209349 ], [ 85.4136231, 28.3203127 ], [ 85.4138207, 28.3196358 ], [ 85.4139613, 28.31916 ], [ 85.4139811, 28.3187869 ], [ 85.4139506, 28.3185791 ], [ 85.4139677, 28.3179827 ], [ 85.4143105, 28.3176403 ], [ 85.4144602, 28.3172597 ], [ 85.4143773, 28.316884 ], [ 85.4142333, 28.3162061 ], [ 85.4139022, 28.3146466 ], [ 85.4138358, 28.3141251 ], [ 85.4137206, 28.3134024 ], [ 85.4133063, 28.3116223 ], [ 85.412949, 28.3111149 ], [ 85.4127553, 28.3105088 ], [ 85.4126846, 28.3103386 ], [ 85.4124681, 28.3098173 ], [ 85.4123885, 28.3093574 ], [ 85.4120093, 28.3084457 ], [ 85.4119388, 28.3082761 ], [ 85.4115409, 28.3078816 ], [ 85.4111002, 28.3075798 ], [ 85.4106895, 28.307487 ], [ 85.4104149, 28.3074941 ], [ 85.409664, 28.3073516 ], [ 85.4091502, 28.3070211 ], [ 85.4090187, 28.3068201 ], [ 85.4089924, 28.3063613 ], [ 85.408941, 28.3060349 ], [ 85.4087897, 28.3059171 ], [ 85.408812, 28.3057634 ], [ 85.4085926, 28.3054781 ], [ 85.4085658, 28.3052809 ], [ 85.4084409, 28.3051173 ], [ 85.4078378, 28.3047876 ], [ 85.4074441, 28.3047396 ], [ 85.407163, 28.3046686 ], [ 85.4068909, 28.304534 ], [ 85.4065969, 28.3040253 ], [ 85.4060329, 28.3035287 ], [ 85.4045487, 28.3023422 ], [ 85.4041992, 28.3021351 ], [ 85.4037581, 28.301637 ], [ 85.403576, 28.3014963 ], [ 85.403375400000016, 28.3014715 ], [ 85.4029428, 28.3015494 ], [ 85.4027333, 28.3015086 ], [ 85.40256890000002, 28.3013026 ], [ 85.4022164, 28.3011451 ], [ 85.401772800000018, 28.300754 ], [ 85.4011323, 28.300567 ], [ 85.4007814, 28.3002229 ], [ 85.4008343, 28.2998741 ], [ 85.4007093, 28.2996547 ], [ 85.3999188, 28.2991592 ], [ 85.3995669, 28.299136 ], [ 85.3988197, 28.298851 ], [ 85.3983657, 28.2987016 ], [ 85.3979828, 28.2984486 ], [ 85.3976698, 28.29814 ], [ 85.3974269, 28.2977919 ], [ 85.3973771, 28.2974413 ], [ 85.3973403, 28.2971822 ], [ 85.3973834, 28.2965476 ], [ 85.3974005, 28.2962497 ], [ 85.3973111, 28.2958784 ], [ 85.3974137, 28.295421 ], [ 85.3972961, 28.2950166 ], [ 85.3970435, 28.2946476 ], [ 85.3965461, 28.2939873 ], [ 85.3962126, 28.2935411 ], [ 85.3955653, 28.2928355 ], [ 85.3951445, 28.292429 ], [ 85.394529, 28.2919332 ], [ 85.3943586, 28.2914677 ], [ 85.3937227, 28.2908516 ], [ 85.3931718, 28.2902466 ], [ 85.393182, 28.2897668 ], [ 85.3929741, 28.2893737 ], [ 85.3917754, 28.2887005 ], [ 85.3909027, 28.288181 ], [ 85.3901552, 28.2877098 ], [ 85.388924, 28.2875133 ], [ 85.3880673, 28.2870884 ], [ 85.3873951, 28.2863418 ], [ 85.3869856, 28.2859506 ], [ 85.3867974, 28.2854304 ], [ 85.3864773, 28.2846397 ], [ 85.3859256, 28.2841678 ], [ 85.3849225, 28.2837567 ], [ 85.3841007, 28.2832429 ], [ 85.3838122, 28.2829662 ], [ 85.383533, 28.2827425 ], [ 85.3832149, 28.2826578 ], [ 85.3830268, 28.282566 ], [ 85.3825389, 28.2820608 ], [ 85.3821406, 28.2819011 ], [ 85.3816699, 28.2818453 ], [ 85.3814097, 28.2816865 ], [ 85.3807758, 28.2803737 ], [ 85.380417400000013, 28.2800201 ], [ 85.3796586, 28.2797444 ], [ 85.3792351, 28.279603 ], [ 85.3789545, 28.2794405 ], [ 85.3785056, 28.279029 ], [ 85.3783054, 28.2788212 ], [ 85.3777589, 28.2785144 ], [ 85.376979, 28.2780546 ] ] } },
{ "type": "Feature", "properties": { "id": "way/996517784", "@id": "way/996517784", "admin_level": null, "alt_name": "伦德科拉河", "alt_name:en": "Lhende Khola", "alt_name:zh": "伦德科拉河", "alt_name:zh-Hans": "伦德科拉河", "alt_name:zh-Hant": "倫德科拉河", "alt_name:zh-Latn-pinyin": null, "boat": null, "boundary": null, "intermittent": "no", "loc_name": "Lhende River", "loc_name:en": "Lhende River", "loc_name:zh": null, "loc_name:zh-Hans": null, "loc_name:zh-Hant": null, "name": "东林藏布", "name:bo": null, "name:bo-Latn-thl": null, "name:bo-Latn-wylie": null, "name:de": "Lhende", "name:en": "Lende Khola", "name:fr": "Lende Khola", "name:ko": null, "name:ne": "लेन्डे खोला", "name:zh": "东林藏布", "name:zh-Hans": "东林藏布", "name:zh-Hant": "東林藏布", "name:zh-Latn-pinyin": null, "nsdi_code": null, "reg_name": null, "reg_name:zh": null, "reg_name:zh-Hans": null, "reg_name:zh-Hant": null, "short_name": null, "short_name:en": null, "short_name:zh": null, "short_name:zh-Hans": null, "short_name:zh-Hant": null, "source": null, "tidal": "no", "waterway": "river", "wikidata": "Q28961063", "zhb_code": null }, "geometry": { "type": "LineString", "coordinates": [ [ 85.4401365, 28.3357917 ], [ 85.4382179, 28.3352694 ], [ 85.4369982, 28.3347851 ], [ 85.4359413, 28.3341811 ], [ 85.4355474, 28.3341089 ], [ 85.4353248, 28.3340153 ], [ 85.4349729, 28.3337026 ], [ 85.4346735, 28.3336351 ], [ 85.4343569, 28.3333839 ], [ 85.4340109, 28.3329865 ], [ 85.4339158, 28.3326119 ], [ 85.433767, 28.332382 ], [ 85.4333761, 28.3321262 ], [ 85.4332152, 28.3319435 ], [ 85.4331131, 28.3316876 ], [ 85.4328882, 28.3315613 ], [ 85.4324402, 28.3315308 ], [ 85.4318592, 28.3311749 ], [ 85.4313707, 28.330793 ], [ 85.430690700000014, 28.3303723 ] ] } },
{ "type": "Feature", "properties": { "id": "way/1552546973", "@id": "way/1552546973", "admin_level": null, "alt_name": "吉隆藏布;Kerung Khola", "alt_name:en": "Kerung Khola;Trisuli;Gyirong Zangbo", "alt_name:zh": null, "alt_name:zh-Hans": null, "alt_name:zh-Hant": null, "alt_name:zh-Latn-pinyin": "jílóng zàngbù", "boat": null, "boundary": null, "intermittent": null, "loc_name": null, "loc_name:en": null, "loc_name:zh": null, "loc_name:zh-Hans": null, "loc_name:zh-Hant": null, "name": "吉隆藏布", "name:bo": "སྐྱིད་གྲོང་གཙང་པོ", "name:bo-Latn-thl": "kyi drong tsang po", "name:bo-Latn-wylie": "skyid grong gtsang po", "name:de": null, "name:en": "Kyirong Tsangpo", "name:fr": null, "name:ko": null, "name:ne": null, "name:zh": "吉隆藏布", "name:zh-Hans": null, "name:zh-Hant": null, "name:zh-Latn-pinyin": "tèěrsūlǐ hé", "nsdi_code": "JD3404", "reg_name": null, "reg_name:zh": null, "reg_name:zh-Hans": null, "reg_name:zh-Hant": null, "short_name": null, "short_name:en": null, "short_name:zh": null, "short_name:zh-Hans": null, "short_name:zh-Hant": null, "source": null, "tidal": null, "waterway": "river", "wikidata": null, "zhb_code": "17JD030800" }, "geometry": { "type": "LineString", "coordinates": [ [ 85.3469569, 28.3041195 ], [ 85.3473778, 28.3034222 ], [ 85.3476495, 28.3024885 ], [ 85.3478351, 28.3023017 ], [ 85.3479331, 28.3021452 ], [ 85.3479061, 28.3019337 ], [ 85.3481059, 28.3016246 ], [ 85.3479506, 28.3012163 ] ] } }
]
}
